{
"type": "FeatureCollection",
"name": "salem_boundary",
"crs": { "type": "name", "properties": { "name": "urn:ogc:def:crs:OGC:1.3:CRS84" } },
"features": [
{ "type": "Feature", "properties": { }, "geometry": { "type": "Polygon", "coordinates": [ [ [ 78.234865583689157, 11.97926009615931, 0.0 ], [ 78.237984861432082, 11.972542272625075, 0.0 ], [ 78.245025386700746, 11.968186804705384, 0.0 ], [ 78.245110792209019, 11.963834144599495, 0.0 ], [ 78.246510571631987, 11.962925042998227, 0.0 ], [ 78.247124649409884, 11.960348409655293, 0.0 ], [ 78.248345480757735, 11.959715130040728, 0.0 ], [ 78.247912628785983, 11.956560368743512, 0.0 ], [ 78.250286865908308, 11.95548488134925, 0.0 ], [ 78.253277407105571, 11.951061296754975, 0.0 ], [ 78.252393511254212, 11.946653902872066, 0.0 ], [ 78.251282726209126, 11.946459015212584, 0.0 ], [ 78.251967655201611, 11.944515735567427, 0.0 ], [ 78.250692035620204, 11.943434857790534, 0.0 ], [ 78.249770830825142, 11.94049648390377, 0.0 ], [ 78.250468871175684, 11.939800792658536, 0.0 ], [ 78.250079512206526, 11.938173349775507, 0.0 ], [ 78.243086485936971, 11.93053644708449, 0.0 ], [ 78.243485507179827, 11.929840220808202, 0.0 ], [ 78.242451926299964, 11.927761386670683, 0.0 ], [ 78.241809311134375, 11.927910843140758, 0.0 ], [ 78.237033311866426, 11.921946310668334, 0.0 ], [ 78.237969426066542, 11.921254403440864, 0.0 ], [ 78.235990229998549, 11.918990700974263, 0.0 ], [ 78.234388344226616, 11.918950563093357, 0.0 ], [ 78.235792477857331, 11.917964712212681, 0.0 ], [ 78.240297282363542, 11.923197135192069, 0.0 ], [ 78.241974053812399, 11.926663294304841, 0.0 ], [ 78.244333292826028, 11.926481523320886, 0.0 ], [ 78.248391664419017, 11.928143217858274, 0.0 ], [ 78.252642919104176, 11.933772157255287, 0.0 ], [ 78.25479644371913, 11.932186584004082, 0.0 ], [ 78.255888487305938, 11.933177005317555, 0.0 ], [ 78.256842043693567, 11.935735683912714, 0.0 ], [ 78.254849191668754, 11.937316774225014, 0.0 ], [ 78.257000696716602, 11.940219580950503, 0.0 ], [ 78.261581607368186, 11.940583119712485, 0.0 ], [ 78.272084852745166, 11.939109449718186, 0.0 ], [ 78.272755561713424, 11.937920908896148, 0.0 ], [ 78.271884236192193, 11.935805209660597, 0.0 ], [ 78.266543814879881, 11.929660533210257, 0.0 ], [ 78.263569699381904, 11.928963162640308, 0.0 ], [ 78.262643161880476, 11.927444064190681, 0.0 ], [ 78.262992923817492, 11.925274653739537, 0.0 ], [ 78.25873619013835, 11.919048872814713, 0.0 ], [ 78.259288435416792, 11.915790200030145, 0.0 ], [ 78.257949700827297, 11.912363511350211, 0.0 ], [ 78.261901786721992, 11.911967454775558, 0.0 ], [ 78.264267378205147, 11.918246628343489, 0.0 ], [ 78.267993068815542, 11.921561343838061, 0.0 ], [ 78.268579678998933, 11.923658805226708, 0.0 ], [ 78.273323822725331, 11.928542250153907, 0.0 ], [ 78.275025693384222, 11.931440160701404, 0.0 ], [ 78.278320875695528, 11.932738624157535, 0.0 ], [ 78.280584009775339, 11.93241856417357, 0.0 ], [ 78.284537306339914, 11.92916102514936, 0.0 ], [ 78.287336484546245, 11.931408460905109, 0.0 ], [ 78.290755874890792, 11.932096593711362, 0.0 ], [ 78.293662216989972, 11.929719967984354, 0.0 ], [ 78.291560746706594, 11.927481919771768, 0.0 ], [ 78.287811606663368, 11.924642196176499, 0.0 ], [ 78.280224675758987, 11.923586449277895, 0.0 ], [ 78.279989168016726, 11.914939622753813, 0.0 ], [ 78.272328852301442, 11.903058273803275, 0.0 ], [ 78.269020773978724, 11.90025005826991, 0.0 ], [ 78.272890486149819, 11.898773616333724, 0.0 ], [ 78.274055684671964, 11.900080282240246, 0.0 ], [ 78.280072944292542, 11.89956721313383, 0.0 ], [ 78.284280133207915, 11.903577960183707, 0.0 ], [ 78.292650752763123, 11.906771823265252, 0.0 ], [ 78.290840497880154, 11.912430282726154, 0.0 ], [ 78.291578795311153, 11.914541305586916, 0.0 ], [ 78.29911898817349, 11.917630765119414, 0.0 ], [ 78.300939957783697, 11.921758011394123, 0.0 ], [ 78.302307507855915, 11.922748247726529, 0.0 ], [ 78.306167689007964, 11.922844247671183, 0.0 ], [ 78.309903575902283, 11.924137966069104, 0.0 ], [ 78.314873044452, 11.930467086916449, 0.0 ], [ 78.317126508377044, 11.931724201018399, 0.0 ], [ 78.319536219094999, 11.932380163644256, 0.0 ], [ 78.321170897337552, 11.929609750448817, 0.0 ], [ 78.324388535227229, 11.93008499367537, 0.0 ], [ 78.328543138753915, 11.927306070054728, 0.0 ], [ 78.331504714984945, 11.922244207582924, 0.0 ], [ 78.33124826408735, 11.918949173240524, 0.0 ], [ 78.328825397342555, 11.915707885659762, 0.0 ], [ 78.326617843288943, 11.914622639254956, 0.0 ], [ 78.322704758095526, 11.90521131932503, 0.0 ], [ 78.326391361746744, 11.899584631397662, 0.0 ], [ 78.321229310343327, 11.894091868704718, 0.0 ], [ 78.31630059417239, 11.892083838203282, 0.0 ], [ 78.307729905892685, 11.883010121710221, 0.0 ], [ 78.309148475271556, 11.881188954275922, 0.0 ], [ 78.319353011742322, 11.890556765265847, 0.0 ], [ 78.324859725298012, 11.893577275442023, 0.0 ], [ 78.328063090177963, 11.894066114270711, 0.0 ], [ 78.336272708770338, 11.900476841323622, 0.0 ], [ 78.340009222063586, 11.897218518997741, 0.0 ], [ 78.354262957170093, 11.912285333710464, 0.0 ], [ 78.357053451701816, 11.913591867897772, 0.0 ], [ 78.358940041088232, 11.91170267442072, 0.0 ], [ 78.360028049200167, 11.908950106323044, 0.0 ], [ 78.35848647068228, 11.901686415373367, 0.0 ], [ 78.353131145328419, 11.894160165953258, 0.0 ], [ 78.354682645131959, 11.891665233844193, 0.0 ], [ 78.365747906101888, 11.891837854778082, 0.0 ], [ 78.368093362002071, 11.887449102715644, 0.0 ], [ 78.367556781311336, 11.880565180861939, 0.0 ], [ 78.364436303717412, 11.87636136222102, 0.0 ], [ 78.363633366813318, 11.872962323298331, 0.0 ], [ 78.36029746273779, 11.867420589877351, 0.0 ], [ 78.356800823685248, 11.865259707625253, 0.0 ], [ 78.353790877246951, 11.860744015193477, 0.0 ], [ 78.351538363638227, 11.854289222043802, 0.0 ], [ 78.351392175336557, 11.848657316850268, 0.0 ], [ 78.348005681658492, 11.848485116109078, 0.0 ], [ 78.347803924030643, 11.847364185219321, 0.0 ], [ 78.351525607855024, 11.84544813486526, 0.0 ], [ 78.351420369832994, 11.842763226714627, 0.0 ], [ 78.347070554855037, 11.84043943969778, 0.0 ], [ 78.347079920723729, 11.839331989393365, 0.0 ], [ 78.350709628196995, 11.837578675247624, 0.0 ], [ 78.350053621596928, 11.836760505192842, 0.0 ], [ 78.350778943646915, 11.833917492322918, 0.0 ], [ 78.345585985570594, 11.82419887858844, 0.0 ], [ 78.343682199196522, 11.821084338661736, 0.0 ], [ 78.339044195987725, 11.816509440405072, 0.0 ], [ 78.336434619947326, 11.809584377343322, 0.0 ], [ 78.332402460412951, 11.804837730367968, 0.0 ], [ 78.327160189565319, 11.795480327987773, 0.0 ], [ 78.312872163756197, 11.782685624959816, 0.0 ], [ 78.318226695794493, 11.779378192860714, 0.0 ], [ 78.328283451806882, 11.775981266906845, 0.0 ], [ 78.345016523768649, 11.793485407674863, 0.0 ], [ 78.348209544451038, 11.794331053777048, 0.0 ], [ 78.351242303420605, 11.792853319108389, 0.0 ], [ 78.370684608337967, 11.816422049599156, 0.0 ], [ 78.38056765364712, 11.825715396818811, 0.0 ], [ 78.383004142097093, 11.82946703328833, 0.0 ], [ 78.38249482384137, 11.833530454159753, 0.0 ], [ 78.386298772329567, 11.839352243846934, 0.0 ], [ 78.387345175226415, 11.84631753241333, 0.0 ], [ 78.393163888036582, 11.852455500352717, 0.0 ], [ 78.393379763845516, 11.855913283289491, 0.0 ], [ 78.3949034631936, 11.859741613107238, 0.0 ], [ 78.400410409438265, 11.863266882142829, 0.0 ], [ 78.403278955053011, 11.868758512340415, 0.0 ], [ 78.403146285376749, 11.873545168667251, 0.0 ], [ 78.407244691278422, 11.876817303181705, 0.0 ], [ 78.414376824929306, 11.880143285084817, 0.0 ], [ 78.419787588940324, 11.879984395080118, 0.0 ], [ 78.427771936940928, 11.874238313249508, 0.0 ], [ 78.430713737137395, 11.874762088307449, 0.0 ], [ 78.435293634666451, 11.873866333287404, 0.0 ], [ 78.441483215749713, 11.868346226058225, 0.0 ], [ 78.433070254558615, 11.862232347229478, 0.0 ], [ 78.435427699656415, 11.855551372418814, 0.0 ], [ 78.435078782042311, 11.854665464251681, 0.0 ], [ 78.438583307952825, 11.848327799927256, 0.0 ], [ 78.440673949843031, 11.839653475125086, 0.0 ], [ 78.450133754050213, 11.831678103296204, 0.0 ], [ 78.449087152450502, 11.830127958209962, 0.0 ], [ 78.455381515001676, 11.826352225352919, 0.0 ], [ 78.459639835934169, 11.827142131379286, 0.0 ], [ 78.468824690968603, 11.823735894281461, 0.0 ], [ 78.476641072674369, 11.819659612673936, 0.0 ], [ 78.477906405631657, 11.817637305960682, 0.0 ], [ 78.485845630021885, 11.818581848291389, 0.0 ], [ 78.490828129972385, 11.817707635565499, 0.0 ], [ 78.498822549975301, 11.813956303079882, 0.0 ], [ 78.509002565410242, 11.813821853312332, 0.0 ], [ 78.511958333147845, 11.81149530493555, 0.0 ], [ 78.517734566264565, 11.812220877405023, 0.0 ], [ 78.521885615721715, 11.815332256977845, 0.0 ], [ 78.526736253280703, 11.812997312078169, 0.0 ], [ 78.535033659925503, 11.807178474284848, 0.0 ], [ 78.53740546309669, 11.807870873765484, 0.0 ], [ 78.539397194913875, 11.806596879186955, 0.0 ], [ 78.546774672978046, 11.806951697249703, 0.0 ], [ 78.549086612209479, 11.8084259175521, 0.0 ], [ 78.555344378459893, 11.809792720644452, 0.0 ], [ 78.574300524139858, 11.819424822828744, 0.0 ], [ 78.576870076164724, 11.818955184639709, 0.0 ], [ 78.585665545032356, 11.820181730976774, 0.0 ], [ 78.595837478320405, 11.822759579340367, 0.0 ], [ 78.598227760169507, 11.825155426131921, 0.0 ], [ 78.603104346210344, 11.832980155141996, 0.0 ], [ 78.601617322005353, 11.836555240919084, 0.0 ], [ 78.608462238266782, 11.850522734570545, 0.0 ], [ 78.611614501257833, 11.854622580229336, 0.0 ], [ 78.618226756852337, 11.859712454904342, 0.0 ], [ 78.619612481600541, 11.863369246581811, 0.0 ], [ 78.623806804756683, 11.865724244279553, 0.0 ], [ 78.626821749560634, 11.869222804079426, 0.0 ], [ 78.627721209453199, 11.866994510748945, 0.0 ], [ 78.63555020324354, 11.864992130991411, 0.0 ], [ 78.649790117156385, 11.866356597878468, 0.0 ], [ 78.655292248051751, 11.865203652042354, 0.0 ], [ 78.656985499722765, 11.863946965767122, 0.0 ], [ 78.658453784068314, 11.861261903391512, 0.0 ], [ 78.65857718434394, 11.85679618557775, 0.0 ], [ 78.659816187411792, 11.85656552009225, 0.0 ], [ 78.661206728307008, 11.857550764395953, 0.0 ], [ 78.677607643822626, 11.858330527954863, 0.0 ], [ 78.685550642792094, 11.855987801179911, 0.0 ], [ 78.693460829873914, 11.85129893520109, 0.0 ], [ 78.695204639184553, 11.851230723033401, 0.0 ], [ 78.694005366064246, 11.844541455004114, 0.0 ], [ 78.69363502696217, 11.830009675559964, 0.0 ], [ 78.692179815016544, 11.826714929081604, 0.0 ], [ 78.692367527306985, 11.824852664795715, 0.0 ], [ 78.691587458331099, 11.824604231164432, 0.0 ], [ 78.690949184321269, 11.822335365604964, 0.0 ], [ 78.690108217000585, 11.816242528240863, 0.0 ], [ 78.69224817441355, 11.80388440675924, 0.0 ], [ 78.685177463960926, 11.801029142138781, 0.0 ], [ 78.681754830631661, 11.800971048760687, 0.0 ], [ 78.679158251455391, 11.802006528876312, 0.0 ], [ 78.665288032161016, 11.796652299740252, 0.0 ], [ 78.662222752200222, 11.790885161350968, 0.0 ], [ 78.661892103688018, 11.788136984368336, 0.0 ], [ 78.663442181344067, 11.78281223005205, 0.0 ], [ 78.662248995703933, 11.779874416863512, 0.0 ], [ 78.659257780286282, 11.778658779986179, 0.0 ], [ 78.643173197679474, 11.768336177981825, 0.0 ], [ 78.642021480087479, 11.760851110590652, 0.0 ], [ 78.643365367852468, 11.756068804057412, 0.0 ], [ 78.639068784594485, 11.74099830120695, 0.0 ], [ 78.637910987059684, 11.721241235789581, 0.0 ], [ 78.652621566826383, 11.71595101420303, 0.0 ], [ 78.652670457382783, 11.715267539627488, 0.0 ], [ 78.651217929851484, 11.6884210662723, 0.0 ], [ 78.649939585098224, 11.681528733787685, 0.0 ], [ 78.650163703782766, 11.67214736108269, 0.0 ], [ 78.649543717192969, 11.66766987276425, 0.0 ], [ 78.64640240920815, 11.663168550337621, 0.0 ], [ 78.645874076121075, 11.660440206554188, 0.0 ], [ 78.650022102281866, 11.662530939427022, 0.0 ], [ 78.655015857443814, 11.66264946903962, 0.0 ], [ 78.660020658761226, 11.661626270362026, 0.0 ], [ 78.659067235839359, 11.647941558856489, 0.0 ], [ 78.672905371153647, 11.644051638991995, 0.0 ], [ 78.678630381696181, 11.643319958174812, 0.0 ], [ 78.680099710067836, 11.643571391567722, 0.0 ], [ 78.680211046969546, 11.644547524906123, 0.0 ], [ 78.678496172339095, 11.664985781637107, 0.0 ], [ 78.682963455699095, 11.667191523154566, 0.0 ], [ 78.682417701016647, 11.668756291985524, 0.0 ], [ 78.678127106946349, 11.667628428400196, 0.0 ], [ 78.677869784712442, 11.671836014252479, 0.0 ], [ 78.682417459607095, 11.682105969002475, 0.0 ], [ 78.685245204574144, 11.682940793201105, 0.0 ], [ 78.69316693179087, 11.689346749136075, 0.0 ], [ 78.695187789165431, 11.69003128036835, 0.0 ], [ 78.700428221541756, 11.691619322190412, 0.0 ], [ 78.704970171663902, 11.689192744670613, 0.0 ], [ 78.709594970556793, 11.690162344270425, 0.0 ], [ 78.712519931890668, 11.685764460991447, 0.0 ], [ 78.717949686344014, 11.683196872766823, 0.0 ], [ 78.724955173417626, 11.689015992676151, 0.0 ], [ 78.728381113385012, 11.689141725296954, 0.0 ], [ 78.737758775575827, 11.692959557741005, 0.0 ], [ 78.753808030437995, 11.693965452710282, 0.0 ], [ 78.760502393183316, 11.69741263035959, 0.0 ], [ 78.761016382635859, 11.696658001426014, 0.0 ], [ 78.765079631795857, 11.697066488398084, 0.0 ], [ 78.769875926588512, 11.699387180240599, 0.0 ], [ 78.775507404586961, 11.700686575237802, 0.0 ], [ 78.780647704230191, 11.703341696160322, 0.0 ], [ 78.786432510719393, 11.699253048766273, 0.0 ], [ 78.791350917252117, 11.693414755767472, 0.0 ], [ 78.801193825419091, 11.690231066235865, 0.0 ], [ 78.804606468792173, 11.688247707997251, 0.0 ], [ 78.806079099125739, 11.686458163643362, 0.0 ], [ 78.804093475199167, 11.685915226949335, 0.0 ], [ 78.804292407445956, 11.679695702916369, 0.0 ], [ 78.805200530681802, 11.679329821901492, 0.0 ], [ 78.805320442006646, 11.676866430235796, 0.0 ], [ 78.804219982020982, 11.676283049192364, 0.0 ], [ 78.804502523842672, 11.666180820774885, 0.0 ], [ 78.805438071122239, 11.665986709265747, 0.0 ], [ 78.806489460234175, 11.661344895829005, 0.0 ], [ 78.80488914009824, 11.661055188900249, 0.0 ], [ 78.803770716457677, 11.659346307909555, 0.0 ], [ 78.797043797144369, 11.658634753673747, 0.0 ], [ 78.797521684152557, 11.655384977729334, 0.0 ], [ 78.79329446680984, 11.653227643390354, 0.0 ], [ 78.793858849764703, 11.652079724074833, 0.0 ], [ 78.790883673022407, 11.649543047830987, 0.0 ], [ 78.787284239385798, 11.649044681579316, 0.0 ], [ 78.783946872293299, 11.646602736879494, 0.0 ], [ 78.780972231453546, 11.642985667575665, 0.0 ], [ 78.778262853256336, 11.641429807322483, 0.0 ], [ 78.773578497455716, 11.63660518689864, 0.0 ], [ 78.777595230360035, 11.63649818664679, 0.0 ], [ 78.780891521554366, 11.637923179430004, 0.0 ], [ 78.781075230651396, 11.637100594099092, 0.0 ], [ 78.782477794569061, 11.638592699185917, 0.0 ], [ 78.783037415270996, 11.637987203763974, 0.0 ], [ 78.78427524842202, 11.638548113943548, 0.0 ], [ 78.78385772801127, 11.639284739788831, 0.0 ], [ 78.786250570665885, 11.641301488648558, 0.0 ], [ 78.786344967400552, 11.633423063768769, 0.0 ], [ 78.787968144060045, 11.633391956850694, 0.0 ], [ 78.78757020511803, 11.630498991069784, 0.0 ], [ 78.78984039462425, 11.628881542920038, 0.0 ], [ 78.788710303049115, 11.62154964358966, 0.0 ], [ 78.789549418543416, 11.621378151429786, 0.0 ], [ 78.78917419567469, 11.619113479602095, 0.0 ], [ 78.788454347557121, 11.619131329088827, 0.0 ], [ 78.786434293630535, 11.613485109297931, 0.0 ], [ 78.782018652295406, 11.614586509723837, 0.0 ], [ 78.776741885618947, 11.613355178227847, 0.0 ], [ 78.775341713901952, 11.605973401598355, 0.0 ], [ 78.778776409732927, 11.604053620742178, 0.0 ], [ 78.783122724295211, 11.604095822067183, 0.0 ], [ 78.786195978736913, 11.599748552362723, 0.0 ], [ 78.790395763013223, 11.599040261727051, 0.0 ], [ 78.794343008423084, 11.599493491653948, 0.0 ], [ 78.794215342166069, 11.597237939866613, 0.0 ], [ 78.795664070773768, 11.597279056303567, 0.0 ], [ 78.795618662206081, 11.595855221439034, 0.0 ], [ 78.801711608716374, 11.595816295799828, 0.0 ], [ 78.808868970819304, 11.59274002582594, 0.0 ], [ 78.817625891785255, 11.590866276117165, 0.0 ], [ 78.817310698254673, 11.585912203776573, 0.0 ], [ 78.82165677530746, 11.58578205985118, 0.0 ], [ 78.824257502702125, 11.579192320074533, 0.0 ], [ 78.829327966051821, 11.578153669343807, 0.0 ], [ 78.829397000792468, 11.576707256389053, 0.0 ], [ 78.82866361427719, 11.576178272640787, 0.0 ], [ 78.827865853995618, 11.576675332783266, 0.0 ], [ 78.825955335076728, 11.570997751295597, 0.0 ], [ 78.823058276721966, 11.570260402710501, 0.0 ], [ 78.820899914849008, 11.566621292010785, 0.0 ], [ 78.819918926380382, 11.566557802992955, 0.0 ], [ 78.818237509672898, 11.562326641349088, 0.0 ], [ 78.816170244268704, 11.561711447685331, 0.0 ], [ 78.81663806160627, 11.560653855336456, 0.0 ], [ 78.815278110321799, 11.554293787940638, 0.0 ], [ 78.81466156470637, 11.544720104123039, 0.0 ], [ 78.81620194714921, 11.543707958082102, 0.0 ], [ 78.816037220125452, 11.542473936446427, 0.0 ], [ 78.817980849454599, 11.541913880062166, 0.0 ], [ 78.823114246360461, 11.543709440606266, 0.0 ], [ 78.826639034303597, 11.544311306878438, 0.0 ], [ 78.829210605388354, 11.5438823772087, 0.0 ], [ 78.834720929921218, 11.539996049721559, 0.0 ], [ 78.833961209743336, 11.533098265911949, 0.0 ], [ 78.834465728916314, 11.531168269844308, 0.0 ], [ 78.843047255779126, 11.523019816384069, 0.0 ], [ 78.835224745669578, 11.514651964927179, 0.0 ], [ 78.83388707821635, 11.510827742710761, 0.0 ], [ 78.834780855784473, 11.510529562981082, 0.0 ], [ 78.833855709666096, 11.506628565215719, 0.0 ], [ 78.830363242440768, 11.507206540160873, 0.0 ], [ 78.828937541143873, 11.509009803028606, 0.0 ], [ 78.826302278896165, 11.508643182894248, 0.0 ], [ 78.822090123203381, 11.509627727621297, 0.0 ], [ 78.816572170953194, 11.508672799173803, 0.0 ], [ 78.814509992412837, 11.507601065083358, 0.0 ], [ 78.810265898365813, 11.507920976960218, 0.0 ], [ 78.809551680049353, 11.504964656280935, 0.0 ], [ 78.811426372135983, 11.504183138909314, 0.0 ], [ 78.811977687979009, 11.498754963689862, 0.0 ], [ 78.810731161675804, 11.498528657267652, 0.0 ], [ 78.810718404784978, 11.494582604880323, 0.0 ], [ 78.808693815622448, 11.490414568182032, 0.0 ], [ 78.81013826738203, 11.487092649576116, 0.0 ], [ 78.80973629034753, 11.481939631231466, 0.0 ], [ 78.798435238095408, 11.481882371170741, 0.0 ], [ 78.796232675244823, 11.460940069358708, 0.0 ], [ 78.792690687829932, 11.460242910853065, 0.0 ], [ 78.792581118558118, 11.458941085306666, 0.0 ], [ 78.791655491553882, 11.458895599197453, 0.0 ], [ 78.79144058955913, 11.457421976073208, 0.0 ], [ 78.790446287922151, 11.457204701251225, 0.0 ], [ 78.789517187234509, 11.453769122583784, 0.0 ], [ 78.794292134999679, 11.453146818660866, 0.0 ], [ 78.794173213117688, 11.45244164574626, 0.0 ], [ 78.7973627421228, 11.45155664359708, 0.0 ], [ 78.797147724379172, 11.450385871890061, 0.0 ], [ 78.798417022676546, 11.45033199589392, 0.0 ], [ 78.79828007579431, 11.448560070999777, 0.0 ], [ 78.803591219836505, 11.447268789846897, 0.0 ], [ 78.803403601343248, 11.446355676656699, 0.0 ], [ 78.804815104432464, 11.445650914324846, 0.0 ], [ 78.819337337611259, 11.439556744798535, 0.0 ], [ 78.818894518710536, 11.432148170445913, 0.0 ], [ 78.822785649019679, 11.427077405107852, 0.0 ], [ 78.820078688040269, 11.422823407102095, 0.0 ], [ 78.812749309141182, 11.416629194166353, 0.0 ], [ 78.812104669147729, 11.410996961303365, 0.0 ], [ 78.809792076180017, 11.406566675394128, 0.0 ], [ 78.808307686293858, 11.406453302000338, 0.0 ], [ 78.807781257598506, 11.404726480001546, 0.0 ], [ 78.806113463621102, 11.405191626280807, 0.0 ], [ 78.806018223149266, 11.401543856904444, 0.0 ], [ 78.801427410620434, 11.40221161110672, 0.0 ], [ 78.79883952865336, 11.384234321173238, 0.0 ], [ 78.792891382764537, 11.389914386117454, 0.0 ], [ 78.79233293374601, 11.388427092384172, 0.0 ], [ 78.791359626895726, 11.388633319275939, 0.0 ], [ 78.78918165824274, 11.386500536362636, 0.0 ], [ 78.781403093617371, 11.398539606138334, 0.0 ], [ 78.781021358792557, 11.402720594061419, 0.0 ], [ 78.773235306141544, 11.40828660790414, 0.0 ], [ 78.771291081217896, 11.412516717593432, 0.0 ], [ 78.772549942088659, 11.415355827196956, 0.0 ], [ 78.765303700413213, 11.421721884281359, 0.0 ], [ 78.762377656921174, 11.428550604076978, 0.0 ], [ 78.760306753285562, 11.428287584087787, 0.0 ], [ 78.756041692021114, 11.437122607609766, 0.0 ], [ 78.748804846067515, 11.441403367785608, 0.0 ], [ 78.743233947246026, 11.4432915255908, 0.0 ], [ 78.741348547776923, 11.449647510617199, 0.0 ], [ 78.732546868072944, 11.451883600604161, 0.0 ], [ 78.720097396080874, 11.453668536873232, 0.0 ], [ 78.708243885072577, 11.457003186433219, 0.0 ], [ 78.703194130430333, 11.456986378442041, 0.0 ], [ 78.69967000563382, 11.455739662845263, 0.0 ], [ 78.69814772969427, 11.451680948320053, 0.0 ], [ 78.688550775317779, 11.443153497777089, 0.0 ], [ 78.688352232364636, 11.435496453318585, 0.0 ], [ 78.675750598286839, 11.428185044602889, 0.0 ], [ 78.661477732188644, 11.425406946899656, 0.0 ], [ 78.65133333058121, 11.422419984441062, 0.0 ], [ 78.650782537101918, 11.407476473314446, 0.0 ], [ 78.656687572932569, 11.400632557680336, 0.0 ], [ 78.658377515887437, 11.393987814219043, 0.0 ], [ 78.658815986194909, 11.379636337374954, 0.0 ], [ 78.662132396125315, 11.376648205241285, 0.0 ], [ 78.663185730025262, 11.37378684613763, 0.0 ], [ 78.655635590598706, 11.36617110587652, 0.0 ], [ 78.649862933364957, 11.354328726639498, 0.0 ], [ 78.643142805281826, 11.348281095350048, 0.0 ], [ 78.642066171694168, 11.342757508862126, 0.0 ], [ 78.621870880199381, 11.336456404093431, 0.0 ], [ 78.604524605180401, 11.338769610247191, 0.0 ], [ 78.596034609177579, 11.330515865682477, 0.0 ], [ 78.595867642157074, 11.329297001615114, 0.0 ], [ 78.594338924118034, 11.329203836781318, 0.0 ], [ 78.59313156034878, 11.326870545412026, 0.0 ], [ 78.589445249362242, 11.326232911211227, 0.0 ], [ 78.585226998067384, 11.329940717938952, 0.0 ], [ 78.583650894410809, 11.32978707596614, 0.0 ], [ 78.579302640658142, 11.324527691423041, 0.0 ], [ 78.580388402186088, 11.322396766048149, 0.0 ], [ 78.579633449552858, 11.318863991894185, 0.0 ], [ 78.57528751290279, 11.31573523920585, 0.0 ], [ 78.571554841886851, 11.315246321579941, 0.0 ], [ 78.561263120837253, 11.316360513694208, 0.0 ], [ 78.556435408396126, 11.317453196123202, 0.0 ], [ 78.552921743161775, 11.320051365904517, 0.0 ], [ 78.552196651362408, 11.32519058655938, 0.0 ], [ 78.555333553306127, 11.327302329726248, 0.0 ], [ 78.555617269808067, 11.328278756721538, 0.0 ], [ 78.554780900133323, 11.338534764313621, 0.0 ], [ 78.55397010887198, 11.338719877331551, 0.0 ], [ 78.552099244340226, 11.346046536145908, 0.0 ], [ 78.552428210882908, 11.349052522809233, 0.0 ], [ 78.554951441138698, 11.351629677108548, 0.0 ], [ 78.553613199927199, 11.354147045639776, 0.0 ], [ 78.553437897720784, 11.358653583112943, 0.0 ], [ 78.542417757582896, 11.369458093278523, 0.0 ], [ 78.539211504038775, 11.368195981050809, 0.0 ], [ 78.535258267300705, 11.367891858003995, 0.0 ], [ 78.52908749629961, 11.368640108433418, 0.0 ], [ 78.526777982044763, 11.370610071005814, 0.0 ], [ 78.523484246298409, 11.370667636635794, 0.0 ], [ 78.52341429055906, 11.373940190046538, 0.0 ], [ 78.52007835115819, 11.376393373002351, 0.0 ], [ 78.51531075534578, 11.384478038424866, 0.0 ], [ 78.511316278358819, 11.383726082716549, 0.0 ], [ 78.510922907050173, 11.382283999081448, 0.0 ], [ 78.508467426213045, 11.3822422978267, 0.0 ], [ 78.508312105833127, 11.381225202445556, 0.0 ], [ 78.503468330257405, 11.380497484615594, 0.0 ], [ 78.502926146963489, 11.381642279851897, 0.0 ], [ 78.503402547043621, 11.38231954328848, 0.0 ], [ 78.50621761826676, 11.383294533157832, 0.0 ], [ 78.508288681119367, 11.39076063390808, 0.0 ], [ 78.508050753605986, 11.393730636850242, 0.0 ], [ 78.509754617076837, 11.396700692399614, 0.0 ], [ 78.506177962050273, 11.396785282553191, 0.0 ], [ 78.504657239549516, 11.39760978463171, 0.0 ], [ 78.502111431075534, 11.396578315785613, 0.0 ], [ 78.483157256452444, 11.397955849555634, 0.0 ], [ 78.486908576622042, 11.410072974599144, 0.0 ], [ 78.489810224814818, 11.414140074659541, 0.0 ], [ 78.485663964551307, 11.414340443132525, 0.0 ], [ 78.48296049602547, 11.413600059431715, 0.0 ], [ 78.481709109881777, 11.411873809261651, 0.0 ], [ 78.480662796396459, 11.407046652854801, 0.0 ], [ 78.475063568244167, 11.405244969573491, 0.0 ], [ 78.474059927305092, 11.404282500336837, 0.0 ], [ 78.473510871314545, 11.40660150458922, 0.0 ], [ 78.471216010065078, 11.408035094783113, 0.0 ], [ 78.468718759352498, 11.407271900077722, 0.0 ], [ 78.467064310155479, 11.405378476561266, 0.0 ], [ 78.464466557713067, 11.405478680919087, 0.0 ], [ 78.458968264270752, 11.403703761835002, 0.0 ], [ 78.456644870276492, 11.401258923148367, 0.0 ], [ 78.454441089803282, 11.400965658873545, 0.0 ], [ 78.454294810181111, 11.402272090722905, 0.0 ], [ 78.44739465640329, 11.400158292086013, 0.0 ], [ 78.446922246663647, 11.398160467995099, 0.0 ], [ 78.439119512567061, 11.394903013177489, 0.0 ], [ 78.438074605388266, 11.393280521357205, 0.0 ], [ 78.437849472983132, 11.389926661923795, 0.0 ], [ 78.433698573351961, 11.388273063617726, 0.0 ], [ 78.430422496625823, 11.385633823280644, 0.0 ], [ 78.427023146186116, 11.384942782371729, 0.0 ], [ 78.42700044190299, 11.386027577376026, 0.0 ], [ 78.430395621590591, 11.388897328247255, 0.0 ], [ 78.435193576388912, 11.396476786679125, 0.0 ], [ 78.441548455402923, 11.399056586930335, 0.0 ], [ 78.44355595127783, 11.402902777962739, 0.0 ], [ 78.444875507205182, 11.403123972366963, 0.0 ], [ 78.44510035008841, 11.404647280978972, 0.0 ], [ 78.443066993101112, 11.408729349081096, 0.0 ], [ 78.447097180945718, 11.421787136103337, 0.0 ], [ 78.445910831942626, 11.423432706383684, 0.0 ], [ 78.448551768227276, 11.43094911655267, 0.0 ], [ 78.452579500281445, 11.431938053672418, 0.0 ], [ 78.455646032830387, 11.436696962386366, 0.0 ], [ 78.457997182707402, 11.438816344426451, 0.0 ], [ 78.448984266250349, 11.438750726961791, 0.0 ], [ 78.445401324119644, 11.439660036422255, 0.0 ], [ 78.443616752113741, 11.451100855687505, 0.0 ], [ 78.441858075099972, 11.455494773025499, 0.0 ], [ 78.437849730851823, 11.461520854897902, 0.0 ], [ 78.437699182945224, 11.464784442644284, 0.0 ], [ 78.433185095691954, 11.462841574863907, 0.0 ], [ 78.431742310396857, 11.466742743006836, 0.0 ], [ 78.430376943440891, 11.46819388212937, 0.0 ], [ 78.428301077033666, 11.468266506184886, 0.0 ], [ 78.427911838202306, 11.469812439673646, 0.0 ], [ 78.425913950421943, 11.470906675270136, 0.0 ], [ 78.426982222893045, 11.474197150117266, 0.0 ], [ 78.43280710291441, 11.4762438023171, 0.0 ], [ 78.433243609237024, 11.482485943426628, 0.0 ], [ 78.434118452722942, 11.482499693243941, 0.0 ], [ 78.433986280831434, 11.483887105242673, 0.0 ], [ 78.435365804287017, 11.484478931070443, 0.0 ], [ 78.436030523405279, 11.485862028708288, 0.0 ], [ 78.435847611668919, 11.487728824215207, 0.0 ], [ 78.434541667224806, 11.488886250078355, 0.0 ], [ 78.435023433862867, 11.491937176632144, 0.0 ], [ 78.432305986858466, 11.492977294635049, 0.0 ], [ 78.432920525955524, 11.495390953115553, 0.0 ], [ 78.434213610034931, 11.498948024803044, 0.0 ], [ 78.436883920077548, 11.498116520708336, 0.0 ], [ 78.436646446617218, 11.495141654318086, 0.0 ], [ 78.439941568658853, 11.495077737959981, 0.0 ], [ 78.440212453000342, 11.497170482141295, 0.0 ], [ 78.442224482794614, 11.497703415013975, 0.0 ], [ 78.442316296714779, 11.498711430628665, 0.0 ], [ 78.446312745867431, 11.498742238888044, 0.0 ], [ 78.445757756610789, 11.496902633684796, 0.0 ], [ 78.448255569133863, 11.497259140639962, 0.0 ], [ 78.450359647922838, 11.499048640129509, 0.0 ], [ 78.452628128677432, 11.498618736749059, 0.0 ], [ 78.452536333918317, 11.498085358644049, 0.0 ], [ 78.4553001959912, 11.499196578709139, 0.0 ], [ 78.457734602648301, 11.502373288386547, 0.0 ], [ 78.458857391731712, 11.502128909801886, 0.0 ], [ 78.460671486156315, 11.499104836780749, 0.0 ], [ 78.460070278855639, 11.496334183657256, 0.0 ], [ 78.461811483609523, 11.494909822935133, 0.0 ], [ 78.46526762483758, 11.497042336672106, 0.0 ], [ 78.465045533721479, 11.505490162630217, 0.0 ], [ 78.467700157039147, 11.508757424246955, 0.0 ], [ 78.473405283970763, 11.520046880848685, 0.0 ], [ 78.47274689696043, 11.525091507103339, 0.0 ], [ 78.470245638759053, 11.529277878950303, 0.0 ], [ 78.468334237909019, 11.529038887427848, 0.0 ], [ 78.468692041076068, 11.529978958680486, 0.0 ], [ 78.461628612438716, 11.529235164588654, 0.0 ], [ 78.461629425996378, 11.53212350188722, 0.0 ], [ 78.459828698321175, 11.534352391599331, 0.0 ], [ 78.461382900958355, 11.535644717158327, 0.0 ], [ 78.464206640951602, 11.536430427269778, 0.0 ], [ 78.467020948111085, 11.536280453772616, 0.0 ], [ 78.466535457020555, 11.537528139933379, 0.0 ], [ 78.457235870750566, 11.539953463931983, 0.0 ], [ 78.454325839948609, 11.542345327653605, 0.0 ], [ 78.455857201983889, 11.543863690655131, 0.0 ], [ 78.45601399316368, 11.547457118796745, 0.0 ], [ 78.45748132869906, 11.549386817049767, 0.0 ], [ 78.460633764398224, 11.561346114139013, 0.0 ], [ 78.457558648009098, 11.564230742066202, 0.0 ], [ 78.455312426774654, 11.564163518305874, 0.0 ], [ 78.453602809082383, 11.56512672219756, 0.0 ], [ 78.453626020345865, 11.566270296244907, 0.0 ], [ 78.448812507397733, 11.565480432069345, 0.0 ], [ 78.451251851668914, 11.586552451858424, 0.0 ], [ 78.4516212112391, 11.59706152666816, 0.0 ], [ 78.440361586633841, 11.598049396134737, 0.0 ], [ 78.434300483572486, 11.596906977654971, 0.0 ], [ 78.431191595174141, 11.593946877849701, 0.0 ], [ 78.418143389887504, 11.589912379889094, 0.0 ], [ 78.39464764777054, 11.586415824559502, 0.0 ], [ 78.391727319195738, 11.585362759666465, 0.0 ], [ 78.38850907568991, 11.586547111041654, 0.0 ], [ 78.385854679289494, 11.586474837897693, 0.0 ], [ 78.383452393231067, 11.579681184413225, 0.0 ], [ 78.382870166586201, 11.57519726819768, 0.0 ], [ 78.380344231388648, 11.576367965410171, 0.0 ], [ 78.377268180241629, 11.576155488430967, 0.0 ], [ 78.377506546607492, 11.577145388620549, 0.0 ], [ 78.375833275336973, 11.577339720622858, 0.0 ], [ 78.374696245848369, 11.582076737109945, 0.0 ], [ 78.37300458267751, 11.582953584844526, 0.0 ], [ 78.374737413065716, 11.585697320387622, 0.0 ], [ 78.374494361912582, 11.588535921131728, 0.0 ], [ 78.373962643221802, 11.585706340064178, 0.0 ], [ 78.371780559045149, 11.582745621250831, 0.0 ], [ 78.371143474403951, 11.578957772313228, 0.0 ], [ 78.370176213155659, 11.578207401764491, 0.0 ], [ 78.365701939237638, 11.577940499568252, 0.0 ], [ 78.364863156257869, 11.57554028931453, 0.0 ], [ 78.361351926200896, 11.571160102784416, 0.0 ], [ 78.35860648707029, 11.565179826968123, 0.0 ], [ 78.357932637828114, 11.565017047629674, 0.0 ], [ 78.356493785642854, 11.558883171971601, 0.0 ], [ 78.351965121965236, 11.555813601178262, 0.0 ], [ 78.349164713414083, 11.552513635423038, 0.0 ], [ 78.348674350985306, 11.551541760331416, 0.0 ], [ 78.34922928313803, 11.549105496876013, 0.0 ], [ 78.343509005249103, 11.546505744426305, 0.0 ], [ 78.34361913619729, 11.545624341836016, 0.0 ], [ 78.34458629466954, 11.54576911086609, 0.0 ], [ 78.34427498533941, 11.54286717337002, 0.0 ], [ 78.345223761180449, 11.543314784419154, 0.0 ], [ 78.345219399883462, 11.541606189756703, 0.0 ], [ 78.343844323413748, 11.541321247086254, 0.0 ], [ 78.342740010208445, 11.538713007700508, 0.0 ], [ 78.340906431555311, 11.539463089420089, 0.0 ], [ 78.338353371142802, 11.539137270287906, 0.0 ], [ 78.33207022673642, 11.533029615337515, 0.0 ], [ 78.328481616118452, 11.531284220876669, 0.0 ], [ 78.327858257639392, 11.531252464775221, 0.0 ], [ 78.328270072875995, 11.534963536113468, 0.0 ], [ 78.327197499800548, 11.534999497152752, 0.0 ], [ 78.326344665638416, 11.536436722565812, 0.0 ], [ 78.320445452227347, 11.536788100741816, 0.0 ], [ 78.310066968657992, 11.541188281980585, 0.0 ], [ 78.31049740514085, 11.542901502099015, 0.0 ], [ 78.323249429871154, 11.542606035801541, 0.0 ], [ 78.324357936019013, 11.54631724861213, 0.0 ], [ 78.3234675080503, 11.551967178657172, 0.0 ], [ 78.323998731711228, 11.554430732374016, 0.0 ], [ 78.329484935804814, 11.558490813060804, 0.0 ], [ 78.317441629678498, 11.563546354304682, 0.0 ], [ 78.310455508727202, 11.563513073914569, 0.0 ], [ 78.307269285966967, 11.564610649782074, 0.0 ], [ 78.308364010225588, 11.567955788890599, 0.0 ], [ 78.307373037214248, 11.570965907962252, 0.0 ], [ 78.31032425370671, 11.574917200382668, 0.0 ], [ 78.317778620164717, 11.573341441837648, 0.0 ], [ 78.319262764785108, 11.578490135354704, 0.0 ], [ 78.311865970376275, 11.587677750438736, 0.0 ], [ 78.303246879106126, 11.588760360162802, 0.0 ], [ 78.289562345260123, 11.584115161563021, 0.0 ], [ 78.283541041857063, 11.580536828356365, 0.0 ], [ 78.271929576650606, 11.578674912259963, 0.0 ], [ 78.269208162779805, 11.574574144834799, 0.0 ], [ 78.265138504172072, 11.571779127260044, 0.0 ], [ 78.264217983446528, 11.569613639040172, 0.0 ], [ 78.264329091739242, 11.566996557603684, 0.0 ], [ 78.277100929827952, 11.565803644151723, 0.0 ], [ 78.266225279579601, 11.559842084947258, 0.0 ], [ 78.259482650144093, 11.558795137366442, 0.0 ], [ 78.243604326442764, 11.552708461705357, 0.0 ], [ 78.239599863749888, 11.557465129383347, 0.0 ], [ 78.214784121950373, 11.563842073100217, 0.0 ], [ 78.207362639968309, 11.56450402978018, 0.0 ], [ 78.2037545801806, 11.563189583690972, 0.0 ], [ 78.201469296715572, 11.553087748065472, 0.0 ], [ 78.183275341252298, 11.550763709757355, 0.0 ], [ 78.176761229341565, 11.548387251402787, 0.0 ], [ 78.17684796107369, 11.545946340630692, 0.0 ], [ 78.171975647130424, 11.547886243725801, 0.0 ], [ 78.169087827832513, 11.547750986229918, 0.0 ], [ 78.166814427235849, 11.548714066791479, 0.0 ], [ 78.164921137006232, 11.547303965920941, 0.0 ], [ 78.163857139690421, 11.542919586765356, 0.0 ], [ 78.161221583317797, 11.543087137842628, 0.0 ], [ 78.160588529670008, 11.53881123277621, 0.0 ], [ 78.148272151006068, 11.537478714280262, 0.0 ], [ 78.148295198077307, 11.539051734575311, 0.0 ], [ 78.144701633582514, 11.539806776983236, 0.0 ], [ 78.144628228424878, 11.538947951393462, 0.0 ], [ 78.141080522710041, 11.540548211373995, 0.0 ], [ 78.138747470688799, 11.544028698273603, 0.0 ], [ 78.138477042936671, 11.543111145230441, 0.0 ], [ 78.135277592928276, 11.541673770661221, 0.0 ], [ 78.132944397563449, 11.541601529113303, 0.0 ], [ 78.132211014349224, 11.538130068088645, 0.0 ], [ 78.127008575168659, 11.540195719992333, 0.0 ], [ 78.127201039259745, 11.541420663298913, 0.0 ], [ 78.125931396419261, 11.541908797390203, 0.0 ], [ 78.123483608053178, 11.540729022301301, 0.0 ], [ 78.123552431579284, 11.539458867090666, 0.0 ], [ 78.122163592139842, 11.539146910419554, 0.0 ], [ 78.121146016387925, 11.539919867677456, 0.0 ], [ 78.119165963344841, 11.539101692584435, 0.0 ], [ 78.119312504381426, 11.54022710928813, 0.0 ], [ 78.117740298006595, 11.540859872767729, 0.0 ], [ 78.118143549776562, 11.543097305016191, 0.0 ], [ 78.116433787409363, 11.543427172599477, 0.0 ], [ 78.116621620677904, 11.545031886673106, 0.0 ], [ 78.113426674586364, 11.546469109679881, 0.0 ], [ 78.113921590545871, 11.547571969801824, 0.0 ], [ 78.112074254390251, 11.549456725808092, 0.0 ], [ 78.109956473677229, 11.550008043056772, 0.0 ], [ 78.110717047636285, 11.554808426143149, 0.0 ], [ 78.11013475736884, 11.555902300111942, 0.0 ], [ 78.106939735105499, 11.556114399955819, 0.0 ], [ 78.105138045923582, 11.557479286788611, 0.0 ], [ 78.101475822121799, 11.55475787984339, 0.0 ], [ 78.097758390601015, 11.553686237942406, 0.0 ], [ 78.098913673845843, 11.551964179788481, 0.0 ], [ 78.097804450135939, 11.551299562315936, 0.0 ], [ 78.096888165332189, 11.547737665945338, 0.0 ], [ 78.095558844802227, 11.547859512689985, 0.0 ], [ 78.090342805345543, 11.545417987732142, 0.0 ], [ 78.086799484409553, 11.545905693588031, 0.0 ], [ 78.086692877622497, 11.552884639345082, 0.0 ], [ 78.08517547819477, 11.553951094591678, 0.0 ], [ 78.083126403112232, 11.554054791440251, 0.0 ], [ 78.082302010055344, 11.54987354767367, 0.0 ], [ 78.078951823315379, 11.54679932043029, 0.0 ], [ 78.076679367195979, 11.541451574693712, 0.0 ], [ 78.076693865336424, 11.537392512159027, 0.0 ], [ 78.07755572439784, 11.536954314839663, 0.0 ], [ 78.07506767220795, 11.53223476671694, 0.0 ], [ 78.075631888604391, 11.530092362812224, 0.0 ], [ 78.078643472266691, 11.528872611885351, 0.0 ], [ 78.077745529980191, 11.527127601305843, 0.0 ], [ 78.079276689593854, 11.525554923046547, 0.0 ], [ 78.078896562611689, 11.523972818369977, 0.0 ], [ 78.07599069132084, 11.523940591968556, 0.0 ], [ 78.07648112532631, 11.523502253072975, 0.0 ], [ 78.075253007756729, 11.522376551956707, 0.0 ], [ 78.073304935133038, 11.523158156707552, 0.0 ], [ 78.070257089809019, 11.522719049728085, 0.0 ], [ 78.069578391267996, 11.524183394937054, 0.0 ], [ 78.070334495297942, 11.524721477699826, 0.0 ], [ 78.070879254303861, 11.527967003265982, 0.0 ], [ 78.069485977346332, 11.527302256601574, 0.0 ], [ 78.067649104011579, 11.522759158246913, 0.0 ], [ 78.066182481833479, 11.522306883440862, 0.0 ], [ 78.06297387842973, 11.523024727035372, 0.0 ], [ 78.058749913257969, 11.515665104672058, 0.0 ], [ 78.057998246239848, 11.515868227700405, 0.0 ], [ 78.059619656148271, 11.519954747298669, 0.0 ], [ 78.058194167024823, 11.520180501419286, 0.0 ], [ 78.058093019800921, 11.521432489854318, 0.0 ], [ 78.058794241337907, 11.521604406592701, 0.0 ], [ 78.057423486430494, 11.522657305681548, 0.0 ], [ 78.055090632659855, 11.522213726421679, 0.0 ], [ 78.054831066403082, 11.51596686524279, 0.0 ], [ 78.054002225793354, 11.513394689717101, 0.0 ], [ 78.053053344250742, 11.51412222519167, 0.0 ], [ 78.043657335787202, 11.515082261689322, 0.0 ], [ 78.046323347273912, 11.5197930308635, 0.0 ], [ 78.040566439039182, 11.520442149877542, 0.0 ], [ 78.035629569221058, 11.52218981313016, 0.0 ], [ 78.033895873333535, 11.525461822695924, 0.0 ], [ 78.034660238094276, 11.528626094552143, 0.0 ], [ 78.026753189221964, 11.530006462382039, 0.0 ], [ 78.02669415124619, 11.528388271051311, 0.0 ], [ 78.025103750017053, 11.528365078023809, 0.0 ], [ 78.024893423351614, 11.526823632592389, 0.0 ], [ 78.016614272162613, 11.530282890047472, 0.0 ], [ 78.015666224078586, 11.528578423726632, 0.0 ], [ 78.013076408625949, 11.528744673115481, 0.0 ], [ 78.012243159033417, 11.526538530911298, 0.0 ], [ 78.007861212439536, 11.527020309889776, 0.0 ], [ 78.007582490101115, 11.524891194831667, 0.0 ], [ 78.004103607770006, 11.524966553269772, 0.0 ], [ 78.003649283412997, 11.526263626940915, 0.0 ], [ 78.001742129884803, 11.527216506104901, 0.0 ], [ 78.001710903554113, 11.525241232863328, 0.0 ], [ 77.994094364900889, 11.526100415772456, 0.0 ], [ 77.987462550184972, 11.527323314626262, 0.0 ], [ 77.977737535644664, 11.530621792662245, 0.0 ], [ 77.976228710648357, 11.528167947649187, 0.0 ], [ 77.975791041418489, 11.521234234223954, 0.0 ], [ 77.974547837384108, 11.517943971855253, 0.0 ], [ 77.971810845910753, 11.515517618695803, 0.0 ], [ 77.973863457120146, 11.513478406618516, 0.0 ], [ 77.97213861807731, 11.508556526004705, 0.0 ], [ 77.974561459939153, 11.503561114181101, 0.0 ], [ 77.976991396859773, 11.501360682994992, 0.0 ], [ 77.974668052966962, 11.493052373404765, 0.0 ], [ 77.973402562306433, 11.4909961021649, 0.0 ], [ 77.972612329304027, 11.484736003841137, 0.0 ], [ 77.973041147424382, 11.478692560691627, 0.0 ], [ 77.974240737981191, 11.47532018629852, 0.0 ], [ 77.972594175657164, 11.470967846179727, 0.0 ], [ 77.971686744990834, 11.470592955747479, 0.0 ], [ 77.971942614022254, 11.468246923411861, 0.0 ], [ 77.967360221068702, 11.468872059637729, 0.0 ], [ 77.967172685919977, 11.469952374882695, 0.0 ], [ 77.961581668322026, 11.468805897686131, 0.0 ], [ 77.954799645639739, 11.469106039431082, 0.0 ], [ 77.951514199113504, 11.470458311055848, 0.0 ], [ 77.948540971090992, 11.473989229010666, 0.0 ], [ 77.947514294893139, 11.473428946359888, 0.0 ], [ 77.948058733202629, 11.469821755673285, 0.0 ], [ 77.946802505314224, 11.466730290836166, 0.0 ], [ 77.943653825992044, 11.464660776033671, 0.0 ], [ 77.943703765852916, 11.462495557979119, 0.0 ], [ 77.941141617989103, 11.459797653410551, 0.0 ], [ 77.935670177289168, 11.459224605659147, 0.0 ], [ 77.9310375052452, 11.459799538766555, 0.0 ], [ 77.930047628634313, 11.459343117618193, 0.0 ], [ 77.930065685949458, 11.458077454403728, 0.0 ], [ 77.928338114584207, 11.458113910955596, 0.0 ], [ 77.927976470737363, 11.459935639714875, 0.0 ], [ 77.927037099556657, 11.459800104677852, 0.0 ], [ 77.925566420781095, 11.461893226608614, 0.0 ], [ 77.923261289743081, 11.460966865644599, 0.0 ], [ 77.925295476841384, 11.458602573373346, 0.0 ], [ 77.924200090004035, 11.456826290152321, 0.0 ], [ 77.9256065617258, 11.455040685254408, 0.0 ], [ 77.923672713152072, 11.453838620278924, 0.0 ], [ 77.924130550996821, 11.451510698128159, 0.0 ], [ 77.922714597314908, 11.451361744708763, 0.0 ], [ 77.921720498210661, 11.453047874047433, 0.0 ], [ 77.918810671756688, 11.452153235066532, 0.0 ], [ 77.915700032933628, 11.458680695590511, 0.0 ], [ 77.914435183371623, 11.457849123058638, 0.0 ], [ 77.915392521572983, 11.454829633991123, 0.0 ], [ 77.9130509151653, 11.454120153759874, 0.0 ], [ 77.911304844603094, 11.451656849336244, 0.0 ], [ 77.913582132042706, 11.4510057104181, 0.0 ], [ 77.913334010852111, 11.444451570901826, 0.0 ], [ 77.910016310381494, 11.442119555570773, 0.0 ], [ 77.911555602443542, 11.439909048635055, 0.0 ], [ 77.912137112596028, 11.43527133737223, 0.0 ], [ 77.911128935592828, 11.434123360270846, 0.0 ], [ 77.91140367806203, 11.432383072626195, 0.0 ], [ 77.909845688285614, 11.431135706383607, 0.0 ], [ 77.908512058031818, 11.427998883016711, 0.0 ], [ 77.911196565665506, 11.423374458903861, 0.0 ], [ 77.91093982538699, 11.422226457295244, 0.0 ], [ 77.90808545313071, 11.422850458102992, 0.0 ], [ 77.90776041012434, 11.425702667556369, 0.0 ], [ 77.905707664009014, 11.425282508067058, 0.0 ], [ 77.905373104356386, 11.424030470404759, 0.0 ], [ 77.902995186251189, 11.42497529269791, 0.0 ], [ 77.899265273918317, 11.419727660611048, 0.0 ], [ 77.895851952362847, 11.421481653142054, 0.0 ], [ 77.889968967691743, 11.419759763753468, 0.0 ], [ 77.890651689553877, 11.422526014564086, 0.0 ], [ 77.889987385369281, 11.424469690071593, 0.0 ], [ 77.886697657862484, 11.42479525055389, 0.0 ], [ 77.880145630985496, 11.423479892958433, 0.0 ], [ 77.876672842174386, 11.41358080357957, 0.0 ], [ 77.874794315175023, 11.413630464594227, 0.0 ], [ 77.874212375951629, 11.416193327553161, 0.0 ], [ 77.870963899977241, 11.41644635118414, 0.0 ], [ 77.870061387228191, 11.415506181894928, 0.0 ], [ 77.86868679803014, 11.416703903063096, 0.0 ], [ 77.866675512662198, 11.416287953847577, 0.0 ], [ 77.865007673829695, 11.417096999848201, 0.0 ], [ 77.863921756136648, 11.418299280374674, 0.0 ], [ 77.864608942426216, 11.419370563701198, 0.0 ], [ 77.865827685191107, 11.419108501996295, 0.0 ], [ 77.866038372814998, 11.420102941874713, 0.0 ], [ 77.865268635642778, 11.420283734251127, 0.0 ], [ 77.86593290164808, 11.422295178745914, 0.0 ], [ 77.86458120674385, 11.423678258103241, 0.0 ], [ 77.863706083869218, 11.423651100448049, 0.0 ], [ 77.863921476167533, 11.422606997806723, 0.0 ], [ 77.857457104263702, 11.415993566879099, 0.0 ], [ 77.855235144281778, 11.415003482574285, 0.0 ], [ 77.854314072549627, 11.416097181651567, 0.0 ], [ 77.852481540010388, 11.415107153442788, 0.0 ], [ 77.851862830117085, 11.416951309649519, 0.0 ], [ 77.850909735387688, 11.417127459189631, 0.0 ], [ 77.851665662966482, 11.417715152253344, 0.0 ], [ 77.850676025005441, 11.417868771869024, 0.0 ], [ 77.852036333549748, 11.422330301782369, 0.0 ], [ 77.849882812954419, 11.423148179169468, 0.0 ], [ 77.848311548036577, 11.420743299256717, 0.0 ], [ 77.847198097933813, 11.421213277750535, 0.0 ], [ 77.847426985415709, 11.422591928292887, 0.0 ], [ 77.848274587320788, 11.422903861423642, 0.0 ], [ 77.847884530099449, 11.427903081657671, 0.0 ], [ 77.846587873976972, 11.428006927103718, 0.0 ], [ 77.846638011758515, 11.430248950440657, 0.0 ], [ 77.846981457231223, 11.431501010845684, 0.0 ], [ 77.84891509380229, 11.431582615191846, 0.0 ], [ 77.849895202250963, 11.434638336954604, 0.0 ], [ 77.847058983848754, 11.43440295691433, 0.0 ], [ 77.847058819265754, 11.436256199243484, 0.0 ], [ 77.839140315014021, 11.441254396143835, 0.0 ], [ 77.832753244252643, 11.439165117141908, 0.0 ], [ 77.83089725705149, 11.440489228404937, 0.0 ], [ 77.828477823601702, 11.440836797273766, 0.0 ], [ 77.827643475576565, 11.443069609286244, 0.0 ], [ 77.822117118635916, 11.444533069157705, 0.0 ], [ 77.820018189187905, 11.446132711356766, 0.0 ], [ 77.82114473389781, 11.448971587423324, 0.0 ], [ 77.826505544248533, 11.451250763269215, 0.0 ], [ 77.834450200387508, 11.457033440590795, 0.0 ], [ 77.834252236703165, 11.462520759957719, 0.0 ], [ 77.832327634632776, 11.462570171848345, 0.0 ], [ 77.829976517885001, 11.463980105905263, 0.0 ], [ 77.831194631969282, 11.46894791009335, 0.0 ], [ 77.829769225150997, 11.469865175627335, 0.0 ], [ 77.829013257062513, 11.469272939086881, 0.0 ], [ 77.822858457772753, 11.471256128711353, 0.0 ], [ 77.820105040705442, 11.467960373674831, 0.0 ], [ 77.817190702075166, 11.467227502109878, 0.0 ], [ 77.817841005756407, 11.469284261395876, 0.0 ], [ 77.816287363406531, 11.469998074995244, 0.0 ], [ 77.81423888997557, 11.470314008358026, 0.0 ], [ 77.812158839345997, 11.468293054246001, 0.0 ], [ 77.811224056704262, 11.468324477231839, 0.0 ], [ 77.811255843284798, 11.469233008332294, 0.0 ], [ 77.808217800908253, 11.468775717376149, 0.0 ], [ 77.808309696434364, 11.467577907948471, 0.0 ], [ 77.811714876604199, 11.466444222619351, 0.0 ], [ 77.814949739412228, 11.467769410651885, 0.0 ], [ 77.815820523955111, 11.467398964434731, 0.0 ], [ 77.814576217887094, 11.458335792612912, 0.0 ], [ 77.814328971719405, 11.457553814642642, 0.0 ], [ 77.805782466938112, 11.459065915578181, 0.0 ], [ 77.804001728708442, 11.4522762026807, 0.0 ], [ 77.80408073923725, 11.448443240951624, 0.0 ], [ 77.799075965954515, 11.451786688770905, 0.0 ], [ 77.797847886907121, 11.451885838206769, 0.0 ], [ 77.796181306290819, 11.447265774758769, 0.0 ], [ 77.784293921185139, 11.45081028338203, 0.0 ], [ 77.786970660851338, 11.462369075548397, 0.0 ], [ 77.791364680406801, 11.46409720842178, 0.0 ], [ 77.791455836884481, 11.465588905111463, 0.0 ], [ 77.790635201428174, 11.466867754903978, 0.0 ], [ 77.788568182050156, 11.467784756615961, 0.0 ], [ 77.784894173637682, 11.477836244557848, 0.0 ], [ 77.778739209344934, 11.478738192695294, 0.0 ], [ 77.774049718344202, 11.482533401555227, 0.0 ], [ 77.772738943438981, 11.482808600246743, 0.0 ], [ 77.767657341824645, 11.481161294810002, 0.0 ], [ 77.76551401657818, 11.477711637415373, 0.0 ], [ 77.765315967766512, 11.468852150357607, 0.0 ], [ 77.763061253280071, 11.458156656126858, 0.0 ], [ 77.762287877105322, 11.455629594072803, 0.0 ], [ 77.761513609305709, 11.455453035749878, 0.0 ], [ 77.761038966760793, 11.450986956164767, 0.0 ], [ 77.753949817051662, 11.451747806913803, 0.0 ], [ 77.751091521582921, 11.449513646647389, 0.0 ], [ 77.743795969916988, 11.44621586968883, 0.0 ], [ 77.73199632874902, 11.444687818217062, 0.0 ], [ 77.72082308945042, 11.453125948639398, 0.0 ], [ 77.719379726977095, 11.453316228171222, 0.0 ], [ 77.714847365547243, 11.451685785052776, 0.0 ], [ 77.712596738764546, 11.44907379186861, 0.0 ], [ 77.708678961022656, 11.449169762218329, 0.0 ], [ 77.709582978986859, 11.454015085007523, 0.0 ], [ 77.708452057218778, 11.457396425674842, 0.0 ], [ 77.711950196799734, 11.463805008917152, 0.0 ], [ 77.70917370290411, 11.465568595402827, 0.0 ], [ 77.706253458657059, 11.460949808623116, 0.0 ], [ 77.696589930953962, 11.464428057814299, 0.0 ], [ 77.697604706903832, 11.473273694386283, 0.0 ], [ 77.702524132292936, 11.482511634676751, 0.0 ], [ 77.711421955416952, 11.492101006697201, 0.0 ], [ 77.7186648679711, 11.498336680691047, 0.0 ], [ 77.720981002576693, 11.503415969563733, 0.0 ], [ 77.729307492920768, 11.50803320109963, 0.0 ], [ 77.73143508175248, 11.509692098939404, 0.0 ], [ 77.732443304125695, 11.511661320415339, 0.0 ], [ 77.732623327025635, 11.517127994442195, 0.0 ], [ 77.730642773071239, 11.521971877224312, 0.0 ], [ 77.724438821631423, 11.531832306105139, 0.0 ], [ 77.723596517449934, 11.534235820792881, 0.0 ], [ 77.724063837090313, 11.536660247323582, 0.0 ], [ 77.731844910361474, 11.551828179726353, 0.0 ], [ 77.744762361090437, 11.565744107679867, 0.0 ], [ 77.745953924910793, 11.567846766834389, 0.0 ], [ 77.746199001866586, 11.570648197615409, 0.0 ], [ 77.743025364798001, 11.576386002771434, 0.0 ], [ 77.740024994289712, 11.58671652126692, 0.0 ], [ 77.736525040722697, 11.59395505962233, 0.0 ], [ 77.735897492854861, 11.601322669439865, 0.0 ], [ 77.736495455060137, 11.603541292828229, 0.0 ], [ 77.743732526900828, 11.616077404908449, 0.0 ], [ 77.7492228730775, 11.62296131163221, 0.0 ], [ 77.749476871241626, 11.628733542688785, 0.0 ], [ 77.751019770445836, 11.633787634890892, 0.0 ], [ 77.761261509882274, 11.648220098880618, 0.0 ], [ 77.762018941927579, 11.656926100969454, 0.0 ], [ 77.766151894857245, 11.664779067060653, 0.0 ], [ 77.76737451808134, 11.669046483092162, 0.0 ], [ 77.76763258956575, 11.677187185895802, 0.0 ], [ 77.772504464566964, 11.684719462137029, 0.0 ], [ 77.77651772616835, 11.69570463505555, 0.0 ], [ 77.770550440360239, 11.697062875080308, 0.0 ], [ 77.748912544392439, 11.664189632419957, 0.0 ], [ 77.747973353406721, 11.658274280970055, 0.0 ], [ 77.745622105919892, 11.654610150722222, 0.0 ], [ 77.740780540980367, 11.654544034956514, 0.0 ], [ 77.736342821569238, 11.657732672134113, 0.0 ], [ 77.73421298733831, 11.657868918626043, 0.0 ], [ 77.731631790400655, 11.656650180975911, 0.0 ], [ 77.730120675145514, 11.654656317364067, 0.0 ], [ 77.728164751817062, 11.65464604605735, 0.0 ], [ 77.726126407548861, 11.651278430868912, 0.0 ], [ 77.724216646947994, 11.649747195282201, 0.0 ], [ 77.721814623865114, 11.652439516744051, 0.0 ], [ 77.718596777598307, 11.650084795974616, 0.0 ], [ 77.717944443717954, 11.650532948419457, 0.0 ], [ 77.714962196934664, 11.649286681820566, 0.0 ], [ 77.71662731044718, 11.646405538316932, 0.0 ], [ 77.718170578416434, 11.646160585885875, 0.0 ], [ 77.716294957387035, 11.642189716222584, 0.0 ], [ 77.711055825769904, 11.639333565567869, 0.0 ], [ 77.705470196755797, 11.634429022889226, 0.0 ], [ 77.702536808616458, 11.634090029082454, 0.0 ], [ 77.700027296937265, 11.634966723202343, 0.0 ], [ 77.700097389687073, 11.63711474404602, 0.0 ], [ 77.695488170557695, 11.639645852639958, 0.0 ], [ 77.69564134339403, 11.640806392409429, 0.0 ], [ 77.689454954441587, 11.652430819764517, 0.0 ], [ 77.689632358932414, 11.663689346633486, 0.0 ], [ 77.690622692815751, 11.667472269694448, 0.0 ], [ 77.694689838717153, 11.674370313391575, 0.0 ], [ 77.696548028365399, 11.683810027746622, 0.0 ], [ 77.696983990053639, 11.691554976055379, 0.0 ], [ 77.698221326593625, 11.69347207125926, 0.0 ], [ 77.69630894043199, 11.695901272856132, 0.0 ], [ 77.69426506384346, 11.694148327027603, 0.0 ], [ 77.691103884440935, 11.694076390144009, 0.0 ], [ 77.689894605311025, 11.694751367983823, 0.0 ], [ 77.691315464586808, 11.698520433548158, 0.0 ], [ 77.691767842282403, 11.70311438069116, 0.0 ], [ 77.694393059195733, 11.703625892139629, 0.0 ], [ 77.695134000099372, 11.706775576795904, 0.0 ], [ 77.692909508775045, 11.708876664872486, 0.0 ], [ 77.693556720108177, 11.713218779982089, 0.0 ], [ 77.690961499143484, 11.718508805088513, 0.0 ], [ 77.694428728149973, 11.719930486708863, 0.0 ], [ 77.696436417661886, 11.722610822639137, 0.0 ], [ 77.698428521922764, 11.72914119794777, 0.0 ], [ 77.697620966391526, 11.730455390399486, 0.0 ], [ 77.698346819241422, 11.733034180283406, 0.0 ], [ 77.697301842752211, 11.735689665855407, 0.0 ], [ 77.698965950796676, 11.739749064405553, 0.0 ], [ 77.703068511446617, 11.74607071107442, 0.0 ], [ 77.705893237018742, 11.754991864245044, 0.0 ], [ 77.706659410640285, 11.755488822652504, 0.0 ], [ 77.70728882016229, 11.759032345145108, 0.0 ], [ 77.706376285757969, 11.760221429369217, 0.0 ], [ 77.707914600717416, 11.766096995290518, 0.0 ], [ 77.711935409438624, 11.773617154943199, 0.0 ], [ 77.713674663442617, 11.775641676307453, 0.0 ], [ 77.715243561750086, 11.775564329814141, 0.0 ], [ 77.719577580990475, 11.786117282343325, 0.0 ], [ 77.71989520323234, 11.789376082571493, 0.0 ], [ 77.721538274658741, 11.791423166020694, 0.0 ], [ 77.722181780008839, 11.795084187392904, 0.0 ], [ 77.709831920540992, 11.797596430080025, 0.0 ], [ 77.710810999752638, 11.804249603177311, 0.0 ], [ 77.709705792102383, 11.806039790915909, 0.0 ], [ 77.710652121907458, 11.810288352889678, 0.0 ], [ 77.707371848076846, 11.811170694369682, 0.0 ], [ 77.700902382235952, 11.810218608314916, 0.0 ], [ 77.698562699716788, 11.811380812894155, 0.0 ], [ 77.691810269717777, 11.817719323350364, 0.0 ], [ 77.685185040683265, 11.818778286352872, 0.0 ], [ 77.672678093379972, 11.822979487244705, 0.0 ], [ 77.666029732450397, 11.824300169426246, 0.0 ], [ 77.664675908718209, 11.822632469395748, 0.0 ], [ 77.663221041944283, 11.818899100709691, 0.0 ], [ 77.663537502090605, 11.817900182141049, 0.0 ], [ 77.662399536820587, 11.817131860279316, 0.0 ], [ 77.662591994823174, 11.815708071183488, 0.0 ], [ 77.661375969547606, 11.813963507831053, 0.0 ], [ 77.652190374241499, 11.812703203848839, 0.0 ], [ 77.646703265911739, 11.818764828602992, 0.0 ], [ 77.646391391892735, 11.822344709140628, 0.0 ], [ 77.66252738278142, 11.852618386380222, 0.0 ], [ 77.660591434123248, 11.857762307139827, 0.0 ], [ 77.66179136687272, 11.878368768027684, 0.0 ], [ 77.685352412731561, 11.877212698888565, 0.0 ], [ 77.685936860086869, 11.885140658954979, 0.0 ], [ 77.684937546735227, 11.890949042757848, 0.0 ], [ 77.682166103725976, 11.894664970276867, 0.0 ], [ 77.681639112122824, 11.898674324710969, 0.0 ], [ 77.679183838613071, 11.900057758050187, 0.0 ], [ 77.680337158546024, 11.907022913929255, 0.0 ], [ 77.679406306732133, 11.91208541630721, 0.0 ], [ 77.681155710447612, 11.916134979647914, 0.0 ], [ 77.679267676103407, 11.938839033598651, 0.0 ], [ 77.680246808690995, 11.949895086426361, 0.0 ], [ 77.683943000846497, 11.946436305036, 0.0 ], [ 77.691327938715588, 11.941838038677895, 0.0 ], [ 77.694247437678584, 11.941832925386528, 0.0 ], [ 77.701165462172895, 11.943571504256237, 0.0 ], [ 77.70453927162535, 11.943186417301895, 0.0 ], [ 77.708812411762338, 11.941395422064426, 0.0 ], [ 77.726337869749415, 11.940088318204619, 0.0 ], [ 77.734444713295844, 11.941007520344048, 0.0 ], [ 77.738364363203999, 11.939772084252452, 0.0 ], [ 77.739006778020396, 11.939197808037834, 0.0 ], [ 77.738963621687702, 11.934601095121543, 0.0 ], [ 77.740683628775301, 11.931323384838594, 0.0 ], [ 77.745478694644447, 11.927321372295765, 0.0 ], [ 77.748618956701733, 11.928784555640389, 0.0 ], [ 77.750628252203953, 11.92807686461239, 0.0 ], [ 77.75143821575044, 11.923570806348339, 0.0 ], [ 77.757871107031789, 11.918705758183615, 0.0 ], [ 77.760507744203309, 11.914200465629966, 0.0 ], [ 77.760733796021995, 11.911524728104725, 0.0 ], [ 77.76266677300994, 11.909907439918987, 0.0 ], [ 77.773626563565372, 11.911561638789541, 0.0 ], [ 77.780437921406332, 11.911342682318903, 0.0 ], [ 77.801900858752902, 11.908199158292124, 0.0 ], [ 77.807417538606146, 11.909077520349395, 0.0 ], [ 77.811277977955868, 11.907202755210548, 0.0 ], [ 77.816414076393158, 11.906846892698438, 0.0 ], [ 77.834636339035811, 11.901562186959275, 0.0 ], [ 77.839804831117434, 11.897485936649685, 0.0 ], [ 77.845271203666869, 11.896483302361576, 0.0 ], [ 77.847740715992202, 11.894295919904069, 0.0 ], [ 77.851374993426859, 11.899082975987548, 0.0 ], [ 77.850149377190178, 11.901306676745582, 0.0 ], [ 77.850052576308059, 11.904900057379836, 0.0 ], [ 77.85277405774724, 11.906568224053709, 0.0 ], [ 77.858772693785298, 11.908431016670061, 0.0 ], [ 77.861209484660876, 11.912847178918758, 0.0 ], [ 77.867088966698688, 11.91574487814681, 0.0 ], [ 77.869576690911842, 11.914786730334043, 0.0 ], [ 77.873078955303754, 11.911125673298022, 0.0 ], [ 77.883222426275765, 11.9121970931739, 0.0 ], [ 77.88694465364992, 11.907907551962008, 0.0 ], [ 77.892030223385007, 11.908874693606469, 0.0 ], [ 77.895458750137792, 11.907319667254237, 0.0 ], [ 77.898877748307953, 11.902912477841594, 0.0 ], [ 77.903072762187506, 11.902030857137468, 0.0 ], [ 77.905082801251226, 11.900285964277275, 0.0 ], [ 77.906432192451746, 11.901108539131856, 0.0 ], [ 77.910948453128199, 11.90108548280425, 0.0 ], [ 77.917153310397964, 11.898286842924072, 0.0 ], [ 77.920880451077494, 11.900880835617633, 0.0 ], [ 77.923289794586069, 11.89976860239339, 0.0 ], [ 77.92825125503623, 11.900278614252787, 0.0 ], [ 77.930440393281643, 11.899188885436541, 0.0 ], [ 77.932932895381811, 11.901344460217526, 0.0 ], [ 77.934043344648643, 11.900182667558775, 0.0 ], [ 77.937627817928856, 11.899589862890695, 0.0 ], [ 77.941619949840899, 11.895878183682452, 0.0 ], [ 77.944759695195316, 11.897766773924007, 0.0 ], [ 77.947026283697014, 11.895176397856652, 0.0 ], [ 77.94850867480919, 11.894941005789015, 0.0 ], [ 77.949899543754654, 11.895898867622352, 0.0 ], [ 77.950671362092734, 11.899211810653961, 0.0 ], [ 77.953370141777853, 11.89932867769544, 0.0 ], [ 77.955362469174815, 11.900977896000059, 0.0 ], [ 77.957528650132559, 11.900385214566677, 0.0 ], [ 77.960998541910755, 11.900922212573624, 0.0 ], [ 77.964921734224419, 11.897802270679101, 0.0 ], [ 77.967372484572067, 11.897417336762157, 0.0 ], [ 77.970345890772009, 11.89555869699667, 0.0 ], [ 77.974504532010954, 11.897048993258926, 0.0 ], [ 77.978832569653946, 11.897241852229012, 0.0 ], [ 77.97922443672438, 11.901983143351917, 0.0 ], [ 77.979968263975451, 11.902963748635322, 0.0 ], [ 77.984208906772125, 11.902446965571114, 0.0 ], [ 77.987042065728744, 11.906003115906474, 0.0 ], [ 77.990236886117998, 11.906720530648624, 0.0 ], [ 77.992252449540175, 11.908405737338351, 0.0 ], [ 77.994859366673154, 11.908264591423016, 0.0 ], [ 77.996044432846219, 11.910212236662513, 0.0 ], [ 77.997044591938064, 11.909452468684782, 0.0 ], [ 77.998430902789025, 11.909750221056488, 0.0 ], [ 77.998340284751677, 11.911620052096948, 0.0 ], [ 77.999858964207746, 11.912108710553293, 0.0 ], [ 78.000977941382374, 11.914179343328813, 0.0 ], [ 78.006357131090155, 11.914430373608631, 0.0 ], [ 78.007182041629193, 11.917260246243618, 0.0 ], [ 78.011297441737312, 11.921307407262589, 0.0 ], [ 78.01257338880302, 11.921425504695323, 0.0 ], [ 78.016337850201083, 11.919677773203375, 0.0 ], [ 78.01986254129794, 11.920940242080677, 0.0 ], [ 78.022607933340296, 11.919404615755832, 0.0 ], [ 78.02686234681201, 11.920450308956447, 0.0 ], [ 78.027912202578435, 11.923795500432558, 0.0 ], [ 78.029582510626113, 11.925052627547432, 0.0 ], [ 78.029911556287402, 11.928926336963666, 0.0 ], [ 78.03428938993639, 11.932245621370237, 0.0 ], [ 78.03430233978608, 11.93453724714692, 0.0 ], [ 78.036996896236005, 11.93396401982843, 0.0 ], [ 78.039043380231718, 11.93633775669918, 0.0 ], [ 78.040898123313426, 11.935334920426678, 0.0 ], [ 78.043050578038603, 11.936687061818697, 0.0 ], [ 78.050941037608226, 11.937213818393644, 0.0 ], [ 78.052386596665485, 11.938493333312511, 0.0 ], [ 78.05819799674039, 11.937952530619556, 0.0 ], [ 78.066933066194267, 11.938808974423006, 0.0 ], [ 78.068989727998186, 11.937896393975052, 0.0 ], [ 78.071564715653921, 11.938588484114701, 0.0 ], [ 78.073722394700283, 11.937599053984744, 0.0 ], [ 78.076902705895066, 11.941373881750872, 0.0 ], [ 78.079266962215442, 11.94012679741456, 0.0 ], [ 78.080194004796255, 11.941103283346266, 0.0 ], [ 78.079757610714807, 11.942897653054507, 0.0 ], [ 78.08056516613901, 11.944348671694934, 0.0 ], [ 78.083030272562809, 11.94412760387525, 0.0 ], [ 78.084907384230576, 11.946161972558087, 0.0 ], [ 78.090232044029108, 11.947541405301271, 0.0 ], [ 78.09089294497862, 11.948517823105394, 0.0 ], [ 78.090525439565326, 11.950072587548327, 0.0 ], [ 78.094996659394155, 11.949105938593584, 0.0 ], [ 78.095698913661863, 11.950177285262942, 0.0 ], [ 78.095707674952664, 11.953259867400183, 0.0 ], [ 78.099104646148945, 11.953585765952973, 0.0 ], [ 78.100596292184321, 11.955760021208754, 0.0 ], [ 78.103029379795885, 11.954761378909373, 0.0 ], [ 78.107192953392243, 11.955814900359618, 0.0 ], [ 78.118053964815317, 11.960362739028676, 0.0 ], [ 78.122070886219475, 11.95931419743477, 0.0 ], [ 78.123851996445097, 11.961592317151963, 0.0 ], [ 78.127143455588481, 11.962338289383698, 0.0 ], [ 78.129043974160538, 11.964498801717925, 0.0 ], [ 78.133129716065653, 11.964453611949139, 0.0 ], [ 78.135186325175468, 11.963233245403242, 0.0 ], [ 78.136848165328672, 11.964421915966648, 0.0 ], [ 78.137068640937457, 11.965628781802478, 0.0 ], [ 78.139767911401762, 11.966722578093645, 0.0 ], [ 78.141246156589503, 11.966500992056165, 0.0 ], [ 78.144859160231519, 11.968250073085645, 0.0 ], [ 78.147062590420205, 11.966532313403622, 0.0 ], [ 78.149482140831722, 11.968349277404187, 0.0 ], [ 78.151529489584263, 11.967463149432348, 0.0 ], [ 78.15465591312406, 11.967544300340325, 0.0 ], [ 78.156335980731455, 11.966518105086379, 0.0 ], [ 78.158199962305829, 11.96847059720308, 0.0 ], [ 78.161422526447083, 11.967096183063788, 0.0 ], [ 78.168478641980414, 11.967420813182031, 0.0 ], [ 78.169672412440363, 11.969011697976528, 0.0 ], [ 78.173271607561503, 11.968862013419491, 0.0 ], [ 78.174346213749715, 11.971049487157813, 0.0 ], [ 78.179056644618569, 11.972843206685713, 0.0 ], [ 78.182848266828202, 11.970428842721724, 0.0 ], [ 78.185947151448104, 11.970884812283559, 0.0 ], [ 78.190657928375259, 11.973622979926768, 0.0 ], [ 78.19346284490517, 11.97301670659412, 0.0 ], [ 78.19587341282174, 11.974435393935805, 0.0 ], [ 78.202126171357577, 11.974393189757407, 0.0 ], [ 78.207020465556013, 11.975933267178011, 0.0 ], [ 78.211445661092228, 11.974341033301133, 0.0 ], [ 78.214039746865808, 11.975185466918125, 0.0 ], [ 78.215261418065779, 11.976812339441192, 0.0 ], [ 78.217800269347961, 11.977146011744273, 0.0 ], [ 78.218731892448133, 11.97588464339883, 0.0 ], [ 78.221904188972346, 11.975901776686461, 0.0 ], [ 78.22315353189164, 11.977808707150489, 0.0 ], [ 78.227042493109352, 11.978910343978342, 0.0 ], [ 78.232877472677131, 11.978533092658438, 0.0 ], [ 78.234865583689157, 11.97926009615931, 0.0 ] ] ] } }
]
}
